OBJECT_NAME,OBJECT_ID,EPOCH,MEAN_MOTION,ECCENTRICITY,INCLINATION,RA_OF_ASC_NODE,ARG_OF_PERICENTER,MEAN_ANOMALY,EPHEMERIS_TYPE,CLASSIFICATION_TYPE,NORAD_CAT_ID,ELEMENT_SET_NO,REV_AT_EPOCH,BSTAR,MEAN_MOTION_DOT,MEAN_MOTION_DDOT
TIANMU-1 21,2023-208C,2026-06-25T03:14:03.929280,15.35203452,.000568,97.4506,295.8344,288.9334,71.1293,0,U,58662,999,13878,.31162E-3,.10575E-3,0
TIANMU-1 22,2023-208D,2026-06-25T04:14:25.374048,15.31157805,.0002523,97.4502,292.4469,329.6970,30.4125,0,U,58663,999,13855,.27181E-3,.8104E-4,0
TIANMU-1 15,2024-004A,2026-06-25T05:22:49.106208,15.26952896,.0005886,97.4670,2.4164,326.0544,34.0317,0,U,58700,999,13700,.21441E-3,.5601E-4,0
TIANMU-1 16,2024-004B,2026-06-25T05:09:11.724192,15.26821775,.0005038,97.4617,1.6351,338.2677,21.8347,0,U,58701,999,13700,.22589E-3,.5881E-4,0
TIANMU-1 17,2024-004C,2026-06-25T04:48:15.424128,15.26820408,.000471,97.4645,2.1083,345.8776,14.2331,0,U,58702,999,13699,.23245E-3,.6054E-4,0
TIANMU-1 18,2024-004D,2026-06-24T07:45:39.517920,15.27065777,.00033287,97.4664,1.4919,349.9344,10.1827,0,U,58703,999,13686,.18074041E-3,.4724E-4,0
INSAT-3DS,2024-033A,2026-06-24T23:18:04.426848,1.00270853,.0001406,0.0572,102.7177,339.6684,262.3286,0,U,58990,999,4714,0,-.147E-5,0
METEOR-M2 4,2024-039A,2026-06-25T04:51:29.416320,14.22430328,.0007723,98.7013,135.3998,139.3163,220.8592,0,U,59051,999,12040,.24997E-4,.12E-6,0
GOES 19,2024-119A,2026-06-25T03:49:38.563968,1.00271732,.0000464,0.0439,171.1940,331.0701,113.2562,0,U,60133,999,704,0,-.239E-5,0
MTG-S1,2025-143A,2026-06-24T04:05:11.035968,1.00400785,.00006287,0.5974,340.4907,289.7945,62.5960,0,U,64723,999,348,0,.2E-6,0
METOP-SGA1,2025-172A,2026-06-25T04:09:43.187328,14.19816295,.0008177,98.6642,235.7313,30.1399,330.0247,0,U,65159,999,4492,.38625E-4,.39E-6,0
FENGYUN 3H,2025-219A,2026-06-24T07:10:40.063584,14.19921497,.0001541,98.6768,115.9299,71.7657,288.3688,0,U,65815,999,3839,.3562092E-4,.32E-6,0
