TIANMU-1 21             
1 58662U 23208C   26176.13476770  .00010575  00000+0  31162-3 0  9992
2 58662  97.4506 295.8344 0005680 288.9334  71.1293 15.35203452138781
TIANMU-1 22             
1 58663U 23208D   26176.17668257  .00008104  00000+0  27181-3 0  9991
2 58663  97.4502 292.4469 0002523 329.6970  30.4125 15.31157805138554
TIANMU-1 15             
1 58700U 24004A   26176.22417947  .00005601  00000+0  21441-3 0  9994
2 58700  97.4670   2.4164 0005886 326.0544  34.0317 15.26952896137005
TIANMU-1 16             
1 58701U 24004B   26176.21471903  .00005881  00000+0  22589-3 0  9990
2 58701  97.4617   1.6351 0005038 338.2677  21.8347 15.26821775137005
TIANMU-1 17             
1 58702U 24004C   26176.20017852  .00006054  00000+0  23245-3 0  9992
2 58702  97.4645   2.1083 0004710 345.8776  14.2331 15.26820408136993
TIANMU-1 18             
1 58703U 24004D   26175.32337405  .00004724  00000+0  18074-3 0  9990
2 58703  97.4664   1.4919 0003328 349.9344  10.1827 15.27065777136867
INSAT-3DS               
1 58990U 24033A   26175.97088457 -.00000147  00000+0  00000+0 0  9993
2 58990   0.0572 102.7177 0001406 339.6684 262.3286  1.00270853 47143
METEOR-M2 4             
1 59051U 24039A   26176.20242380  .00000012  00000+0  24997-4 0  9998
2 59051  98.7013 135.3998 0007723 139.3163 220.8592 14.22430328120407
GOES 19                 
1 60133U 24119A   26176.15947412 -.00000239  00000+0  00000+0 0  9998
2 60133   0.0439 171.1940 0000464 331.0701 113.2562  1.00271732  7047
MTG-S1                  
1 64723U 25143A   26175.17026662  .00000020  00000+0  00000+0 0  9998
2 64723   0.5974 340.4907 0000628 289.7945  62.5960  1.00400785  3484
METOP-SGA1              
1 65159U 25172A   26176.17341652  .00000039  00000+0  38625-4 0  9993
2 65159  98.6642 235.7313 0008177  30.1399 330.0247 14.19816295 44929
FENGYUN 3H              
1 65815U 25219A   26175.29907481  .00000032  00000+0  35621-4 0  9990
2 65815  98.6768 115.9299 0001541  71.7657 288.3688 14.19921497 38394
